[
  {
    "OBJECT_NAME": "STARLINK-31019",
    "OBJECT_ID": "23192K",
    "EPOCH": "2025-11-11T04:44:28.337280",
    "MEAN_MOTION": 15.3019193,
    "ECCENTRICITY": 0.0001199,
    "INCLINATION": 53.1615,
    "RA_OF_ASC_NODE": 253.1282,
    "ARG_OF_PERICENTER": 76.1821,
    "MEAN_ANOMALY": 283.9313,
    "EPHEMERIS_TYPE": 0,
    "CLASSIFICATION_TYPE": "U",
    "NORAD_CAT_ID": 58540,
    "ELEMENT_SET_NO": 999,
    "REV_AT_EPOCH": 10784,
    "BSTAR": 0.00013809,
    "MEAN_MOTION_DOT": 3.732e-05,
    "MEAN_MOTION_DDOT": 0.0,
    "TLE_LINE1": "1 58540U 23192K   25315.19755020  .00003732  00000+0  13809-3 0  9992",
    "TLE_LINE2": "2 58540  53.1615 253.1282 0001199  76.1821 283.9313 15.30191930107844",
    "COMMENT": "Grouped by shell and plane from TLE"
  },
  {
    "OBJECT_NAME": "STARLINK-31030",
    "OBJECT_ID": "23192M",
    "EPOCH": "2025-11-11T05:02:43.592064",
    "MEAN_MOTION": 15.30186354,
    "ECCENTRICITY": 0.0001422,
    "INCLINATION": 53.1622,
    "RA_OF_ASC_NODE": 253.2066,
    "ARG_OF_PERICENTER": 84.4343,
    "MEAN_ANOMALY": 275.682,
    "EPHEMERIS_TYPE": 0,
    "CLASSIFICATION_TYPE": "U",
    "NORAD_CAT_ID": 58542,
    "ELEMENT_SET_NO": 999,
    "REV_AT_EPOCH": 10784,
    "BSTAR": 0.00013655999999999998,
    "MEAN_MOTION_DOT": 3.686e-05,
    "MEAN_MOTION_DDOT": 0.0,
    "TLE_LINE1": "1 58542U 23192M   25315.21022676  .00003686  00000+0  13656-3 0  9999",
    "TLE_LINE2": "2 58542  53.1622 253.2066 0001422  84.4343 275.6820 15.30186354107840",
    "COMMENT": "Grouped by shell and plane from TLE"
  },
  {
    "OBJECT_NAME": "STARLINK-31049",
    "OBJECT_ID": "23192N",
    "EPOCH": "2025-11-11T05:07:16.645440",
    "MEAN_MOTION": 15.30187588,
    "ECCENTRICITY": 0.000146,
    "INCLINATION": 53.1625,
    "RA_OF_ASC_NODE": 253.2273,
    "ARG_OF_PERICENTER": 94.8963,
    "MEAN_ANOMALY": 265.2204,
    "EPHEMERIS_TYPE": 0,
    "CLASSIFICATION_TYPE": "U",
    "NORAD_CAT_ID": 58543,
    "ELEMENT_SET_NO": 999,
    "REV_AT_EPOCH": 10784,
    "BSTAR": 5.2619000000000006e-05,
    "MEAN_MOTION_DOT": 1.199e-05,
    "MEAN_MOTION_DDOT": 0.0,
    "TLE_LINE1": "1 58543U 23192N   25315.21338710  .00001199  00000+0  52619-4 0  9999",
    "TLE_LINE2": "2 58543  53.1625 253.2273 0001460  94.8963 265.2204 15.30187588107840",
    "COMMENT": "Grouped by shell and plane from TLE"
  },
  {
    "OBJECT_NAME": "STARLINK-31048",
    "OBJECT_ID": "23192P",
    "EPOCH": "2025-11-11T05:45:04.820832",
    "MEAN_MOTION": 15.30200926,
    "ECCENTRICITY": 0.0001162,
    "INCLINATION": 53.1607,
    "RA_OF_ASC_NODE": 252.6372,
    "ARG_OF_PERICENTER": 83.9789,
    "MEAN_ANOMALY": 276.1344,
    "EPHEMERIS_TYPE": 0,
    "CLASSIFICATION_TYPE": "U",
    "NORAD_CAT_ID": 58544,
    "ELEMENT_SET_NO": 999,
    "REV_AT_EPOCH": 10785,
    "BSTAR": 0.00016577,
    "MEAN_MOTION_DOT": 4.554e-05,
    "MEAN_MOTION_DDOT": 0.0,
    "TLE_LINE1": "1 58544U 23192P   25315.23963913  .00004554  00000+0  16577-3 0  9991",
    "TLE_LINE2": "2 58544  53.1607 252.6372 0001162  83.9789 276.1344 15.30200926107857",
    "COMMENT": "Grouped by shell and plane from TLE"
  },
  {
    "OBJECT_NAME": "STARLINK-31057",
    "OBJECT_ID": "23192Q",
    "EPOCH": "2025-11-11T05:11:49.717824",
    "MEAN_MOTION": 15.30189819,
    "ECCENTRICITY": 0.0001119,
    "INCLINATION": 53.1629,
    "RA_OF_ASC_NODE": 253.2382,
    "ARG_OF_PERICENTER": 127.534,
    "MEAN_ANOMALY": 232.5762,
    "EPHEMERIS_TYPE": 0,
    "CLASSIFICATION_TYPE": "U",
    "NORAD_CAT_ID": 58545,
    "ELEMENT_SET_NO": 999,
    "REV_AT_EPOCH": 10784,
    "BSTAR": 0.00012696,
    "MEAN_MOTION_DOT": 3.402e-05,
    "MEAN_MOTION_DDOT": 0.0,
    "TLE_LINE1": "1 58545U 23192Q   25315.21654766  .00003402  00000+0  12696-3 0  9992",
    "TLE_LINE2": "2 58545  53.1629 253.2382 0001119 127.5340 232.5762 15.30189819107846",
    "COMMENT": "Grouped by shell and plane from TLE"
  },
  {
    "OBJECT_NAME": "STARLINK-31050",
    "OBJECT_ID": "23192R",
    "EPOCH": "2025-11-11T05:16:23.433024",
    "MEAN_MOTION": 15.301897,
    "ECCENTRICITY": 0.0001109,
    "INCLINATION": 53.1619,
    "RA_OF_ASC_NODE": 253.2656,
    "ARG_OF_PERICENTER": 84.1851,
    "MEAN_ANOMALY": 275.9276,
    "EPHEMERIS_TYPE": 0,
    "CLASSIFICATION_TYPE": "U",
    "NORAD_CAT_ID": 58546,
    "ELEMENT_SET_NO": 999,
    "REV_AT_EPOCH": 10784,
    "BSTAR": 5.4682e-05,
    "MEAN_MOTION_DOT": 1.26e-05,
    "MEAN_MOTION_DDOT": 0.0,
    "TLE_LINE1": "1 58546U 23192R   25315.21971566  .00001260  00000+0  54682-4 0  9995",
    "TLE_LINE2": "2 58546  53.1619 253.2656 0001109  84.1851 275.9276 15.30189700107844",
    "COMMENT": "Grouped by shell and plane from TLE"
  },
  {
    "OBJECT_NAME": "STARLINK-31016",
    "OBJECT_ID": "23192T",
    "EPOCH": "2025-11-11T05:49:38.815104",
    "MEAN_MOTION": 15.30190658,
    "ECCENTRICITY": 0.0001308,
    "INCLINATION": 53.1598,
    "RA_OF_ASC_NODE": 252.6537,
    "ARG_OF_PERICENTER": 99.9547,
    "MEAN_ANOMALY": 260.1602,
    "EPHEMERIS_TYPE": 0,
    "CLASSIFICATION_TYPE": "U",
    "NORAD_CAT_ID": 58548,
    "ELEMENT_SET_NO": 999,
    "REV_AT_EPOCH": 10785,
    "BSTAR": 0.00015213,
    "MEAN_MOTION_DOT": 4.148e-05,
    "MEAN_MOTION_DDOT": 0.0,
    "TLE_LINE1": "1 58548U 23192T   25315.24281036  .00004148  00000+0  15213-3 0  9990",
    "TLE_LINE2": "2 58548  53.1598 252.6537 0001308  99.9547 260.1602 15.30190658107854",
    "COMMENT": "Grouped by shell and plane from TLE"
  },
  {
    "OBJECT_NAME": "STARLINK-31053",
    "OBJECT_ID": "23192U",
    "EPOCH": "2025-11-11T03:46:53.106240",
    "MEAN_MOTION": 15.30199846,
    "ECCENTRICITY": 0.0001115,
    "INCLINATION": 53.1617,
    "RA_OF_ASC_NODE": 253.5896,
    "ARG_OF_PERICENTER": 90.1884,
    "MEAN_ANOMALY": 269.9245,
    "EPHEMERIS_TYPE": 0,
    "CLASSIFICATION_TYPE": "U",
    "NORAD_CAT_ID": 58549,
    "ELEMENT_SET_NO": 999,
    "REV_AT_EPOCH": 10783,
    "BSTAR": 0.00010557,
    "MEAN_MOTION_DOT": 2.769e-05,
    "MEAN_MOTION_DDOT": 0.0,
    "TLE_LINE1": "1 58549U 23192U   25315.15755910  .00002769  00000+0  10557-3 0  9991",
    "TLE_LINE2": "2 58549  53.1617 253.5896 0001115  90.1884 269.9245 15.30199846107834",
    "COMMENT": "Grouped by shell and plane from TLE"
  },
  {
    "OBJECT_NAME": "STARLINK-31056",
    "OBJECT_ID": "23192V",
    "EPOCH": "2025-11-11T05:54:15.193152",
    "MEAN_MOTION": 15.3016987,
    "ECCENTRICITY": 0.0001036,
    "INCLINATION": 53.1601,
    "RA_OF_ASC_NODE": 252.7215,
    "ARG_OF_PERICENTER": 70.6324,
    "MEAN_ANOMALY": 289.4789,
    "EPHEMERIS_TYPE": 0,
    "CLASSIFICATION_TYPE": "U",
    "NORAD_CAT_ID": 58550,
    "ELEMENT_SET_NO": 999,
    "REV_AT_EPOCH": 10785,
    "BSTAR": 0.0,
    "MEAN_MOTION_DOT": -5.94e-06,
    "MEAN_MOTION_DDOT": 0.0,
    "TLE_LINE1": "1 58550U 23192V   25315.24600918 -.00000594  00000+0 -79464-5 0  9990",
    "TLE_LINE2": "2 58550  53.1601 252.7215 0001036  70.6324 289.4789 15.30169870107855",
    "COMMENT": "Grouped by shell and plane from TLE"
  },
  {
    "OBJECT_NAME": "STARLINK-31046",
    "OBJECT_ID": "23192X",
    "EPOCH": "2025-11-11T05:31:34.667040",
    "MEAN_MOTION": 15.30198568,
    "ECCENTRICITY": 0.0001488,
    "INCLINATION": 53.1624,
    "RA_OF_ASC_NODE": 253.332,
    "ARG_OF_PERICENTER": 83.7153,
    "MEAN_ANOMALY": 276.4018,
    "EPHEMERIS_TYPE": 0,
    "CLASSIFICATION_TYPE": "U",
    "NORAD_CAT_ID": 58552,
    "ELEMENT_SET_NO": 999,
    "REV_AT_EPOCH": 10784,
    "BSTAR": 7.209100000000001e-05,
    "MEAN_MOTION_DOT": 1.776e-05,
    "MEAN_MOTION_DDOT": 0.0,
    "TLE_LINE1": "1 58552U 23192X   25315.23026235  .00001776  00000+0  72091-4 0  9994",
    "TLE_LINE2": "2 58552  53.1624 253.3320 0001488  83.7153 276.4018 15.30198568107848",
    "COMMENT": "Grouped by shell and plane from TLE"
  },
  {
    "OBJECT_NAME": "STARLINK-31406",
    "OBJECT_ID": "24036V",
    "EPOCH": "2025-11-11T02:37:50.837952",
    "MEAN_MOTION": 15.30176177,
    "ECCENTRICITY": 8.6e-05,
    "INCLINATION": 53.1602,
    "RA_OF_ASC_NODE": 255.7506,
    "ARG_OF_PERICENTER": 59.7295,
    "MEAN_ANOMALY": 300.3791,
    "EPHEMERIS_TYPE": 0,
    "CLASSIFICATION_TYPE": "U",
    "NORAD_CAT_ID": 59017,
    "ELEMENT_SET_NO": 999,
    "REV_AT_EPOCH": 9735,
    "BSTAR": 0.0,
    "MEAN_MOTION_DOT": -1.446e-05,
    "MEAN_MOTION_DDOT": 0.0,
    "TLE_LINE1": "1 59017U 24036V   25315.10961618 -.00001446  00000+0 -36736-4 0  9990",
    "TLE_LINE2": "2 59017  53.1602 255.7506 0000860  59.7295 300.3791 15.30176177 97357",
    "COMMENT": "Grouped by shell and plane from TLE"
  },
  {
    "OBJECT_NAME": "STARLINK-31265",
    "OBJECT_ID": "24041A",
    "EPOCH": "2025-11-11T05:22:30.447264",
    "MEAN_MOTION": 15.27620016,
    "ECCENTRICITY": 7.97e-05,
    "INCLINATION": 43.0008,
    "RA_OF_ASC_NODE": 259.7436,
    "ARG_OF_PERICENTER": 266.1796,
    "MEAN_ANOMALY": 93.8964,
    "EPHEMERIS_TYPE": 0,
    "CLASSIFICATION_TYPE": "U",
    "NORAD_CAT_ID": 59074,
    "ELEMENT_SET_NO": 999,
    "REV_AT_EPOCH": 9615,
    "BSTAR": 0.0012314000000000001,
    "MEAN_MOTION_DOT": 0.00033821,
    "MEAN_MOTION_DDOT": 0.0,
    "TLE_LINE1": "1 59074U 24041A   25315.22396351  .00033821  00000+0  12314-2 0  9992",
    "TLE_LINE2": "2 59074  43.0008 259.7436 0000797 266.1796  93.8964 15.27620016 96158",
    "COMMENT": "Grouped by shell and plane from TLE"
  },
  {
    "OBJECT_NAME": "STARLINK-31276",
    "OBJECT_ID": "24041B",
    "EPOCH": "2025-11-11T06:10:24.569184",
    "MEAN_MOTION": 15.27594001,
    "ECCENTRICITY": 0.0001668,
    "INCLINATION": 43.0011,
    "RA_OF_ASC_NODE": 259.1424,
    "ARG_OF_PERICENTER": 253.7488,
    "MEAN_ANOMALY": 106.318,
    "EPHEMERIS_TYPE": 0,
    "CLASSIFICATION_TYPE": "U",
    "NORAD_CAT_ID": 59075,
    "ELEMENT_SET_NO": 999,
    "REV_AT_EPOCH": 9621,
    "BSTAR": 0.00016325,
    "MEAN_MOTION_DOT": 4.235e-05,
    "MEAN_MOTION_DDOT": 0.0,
    "TLE_LINE1": "1 59075U 24041B   25315.25722881  .00004235  00000+0  16325-3 0  9991",
    "TLE_LINE2": "2 59075  43.0011 259.1424 0001668 253.7488 106.3180 15.27594001 96213",
    "COMMENT": "Grouped by shell and plane from TLE"
  }
]